TEVEL2-7                
1 63238U 25052AE  26068.66113296  .00019244  00000+0  69668-3 0  9999
2 63238  97.4054 324.3041 0008104 124.6830 235.5175 15.28414096 54802
STARLINK-33721          
1 63480U 25070W   26068.91867764  .00038789  00000+0  14102-2 0  9999
2 63480  43.0036 254.8336 0005219 271.6402  88.3852 15.27605372 53054
